[{"OBJECT_NAME":"ONEWEB-0392","OBJECT_ID":"2021-132D","EPOCH":"2026-03-09T21:47:28.416192","MEAN_MOTION":13.17649523,"ECCENTRICITY":0.0001764,"INCLINATION":87.9163,"RA_OF_ASC_NODE":25.5532,"ARG_OF_PERICENTER":69.0087,"MEAN_ANOMALY":291.1233,"EPHEMERIS_TYPE":0,"CLASSIFICATION_TYPE":"U","NORAD_CAT_ID":50472,"ELEMENT_SET_NO":999,"REV_AT_EPOCH":20504,"BSTAR":0.00039112641,"MEAN_MOTION_DOT":1.65e-6,"MEAN_MOTION_DDOT":0},{"OBJECT_NAME":"DELTA 1 DEB","OBJECT_ID":"1975-052FA","EPOCH":"2026-03-09T09:54:04.975776","MEAN_MOTION":13.22163297,"ECCENTRICITY":0.01346621,"INCLINATION":99.6606,"RA_OF_ASC_NODE":241.5129,"ARG_OF_PERICENTER":1.4651,"MEAN_ANOMALY":27.8367,"EPHEMERIS_TYPE":0,"CLASSIFICATION_TYPE":"U","NORAD_CAT_ID":21466,"ELEMENT_SET_NO":999,"REV_AT_EPOCH":67876,"BSTAR":0.00057273319,"MEAN_MOTION_DOT":2.09e-6,"MEAN_MOTION_DDOT":0}]
